1 42024U 17008CE  21279.75888842  .00009182  00000-0  29528-3 0  9998
2 42024  97.3157 348.9705 0007717  51.8435 308.3501 15.32441540257351
1 42024U 17008CE  21280.47715771  .00010208  00000-0  32781-3 0  9995
2 42024  97.3153 349.6804 0007664  49.6412 310.5498 15.32456970257461
1 42024U 17008CE  21280.67304830  .00009748  00000-0  31315-3 0  9996
2 42024  97.3153 349.8741 0007625  48.8652 311.3247 15.32460357257495
1 42024U 17008CE  21281.45660480  .00008963  00000-0  28801-3 0  9993
2 42024  97.3149 350.6484 0007557  46.1763 314.0103 15.32475475257614
1 42024U 17008CE  21281.78308469  .00008658  00000-0  27825-3 0  9991
2 42024  97.3147 350.9709 0007538  45.0185 315.1667 15.32481350257661
1 42024U 17008CE  21281.91367621  .00008646  00000-0  27785-3 0  9993
2 42024  97.3146 351.1000 0007520  44.6277 315.5570 15.32483632257689
1 42024U 17008CE  21282.17485868  .00008353  00000-0  26848-3 0  9990
2 42024  97.3146 351.3581 0007500  43.7671 316.4165 15.32488282257722
1 42024U 17008CE  21282.76251698  .00009283  00000-0  29797-3 0  9996
2 42024  97.3143 351.9388 0007456  42.0447 318.1366 15.32499578257815
1 42024U 17008CE  21283.15428669  .00009883  00000-0  31697-3 0  9992
2 42024  97.3142 352.3259 0007422  40.8300 319.3497 15.32507389257877
1 42024U 17008CE  21283.41546606  .00014083  00000-0  45027-3 0  9993
2 42024  97.3141 352.5839 0007408  39.9863 320.1924 15.32517603257919
1 42024U 17008CE  21283.74193793  .00010560  00000-0  33837-3 0  9996
2 42024  97.3141 352.9065 0007367  38.9634 321.2138 15.32519069257965
1 42024U 17008CE  21284.46016884  .00016812  00000-0  53643-3 0  9994
2 42024  97.3137 353.6161 0007288  36.3559 323.8177 15.32545966258074
1 42024U 17008CE  21284.72134468  .00012211  00000-0  39054-3 0  9991
2 42024  97.3137 353.8741 0007259  35.6968 324.4758 15.32542537258112
1 42024U 17008CE  21284.91722417  .00012129  00000-0  38791-3 0  9994
2 42024  97.3137 354.0676 0007238  35.1292 325.0426 15.32546619258141
1 42024U 17008CE  21285.17839564  .00013944  00000-0  44537-3 0  9996
2 42024  97.3138 354.3257 0007215  34.2970 325.8736 15.32555796258180
1 42024U 17008CE  21286.15777680  .00015427  00000-0  49193-3 0  9996
2 42024  97.3138 355.2933 0007125  31.0247 329.1415 15.32586061258330
1 42024U 17008CE  21287.46359186  .00008862  00000-0  28362-3 0  9998
2 42024  97.3141 356.5837 0006999  26.6135 333.5465 15.32613064258535
1 42024U 17008CE  21288.18178063  .00009467  00000-0  30264-3 0  9997
2 42024  97.3142 357.2934 0006934  24.2417 335.9150 15.32628623258644
1 42024U 17008CE  21288.70409618  .00009706  00000-0  31012-3 0  9996
2 42024  97.3142 357.8097 0006869  22.3961 337.7580 15.32638027258725
1 42024U 17008CE  21289.16111949  .00009511  00000-0  30389-3 0  9994
2 42024  97.3143 358.2614 0006825  20.8603 339.2916 15.32646409258794
1 42024U 17008CE  21289.42227492  .00009011  00000-0  28803-3 0  9997
2 42024  97.3143 358.5195 0006804  20.0721 340.0788 15.32649859258835
1 42024U 17008CE  21290.14044842  .00007365  00000-0  23584-3 0  9995
2 42024  97.3144 359.2294 0006731  17.3404 342.8067 15.32659149258945
1 42024U 17008CE  21290.72804078  .00008612  00000-0  27522-3 0  9996
2 42024  97.3144 359.8102 0006659  15.2912 344.8530 15.32670602259034
1 42024U 17008CE  21291.44620193  .00012241  00000-0  38977-3 0  9999
2 42024  97.3144   0.5200 0006583  12.6978 347.4429 15.32690291259146
1 42024U 17008CE  21291.77263668  .00011125  00000-0  35445-3 0  9992
2 42024  97.3143   0.8427 0006556  11.6634 348.4759 15.32695453259194
1 42024U 17008CE  21292.42550047  .00010599  00000-0  33766-3 0  9993
2 42024  97.3141   1.4880 0006494   9.3875 350.7487 15.32709994259295
1 42024U 17008CE  21292.75193008  .00008490  00000-0  27099-3 0  9998
2 42024  97.3141   1.8107 0006451   8.0994 352.0352 15.32715448259345
1 42024U 17008CE  21293.47007080  .00008790  00000-0  28036-3 0  9997
2 42024  97.3139   2.5206 0006383   5.5373 354.5939 15.32729845259453
1 42024U 17008CE  21293.73121159  .00008422  00000-0  26870-3 0  9996
2 42024  97.3138   2.7788 0006347   4.5857 355.5443 15.32734469259498
1 42024U 17008CE  21294.12292124  .00008454  00000-0  26964-3 0  9990
2 42024  97.3138   3.1659 0006304   3.2476 356.8806 15.32741354259551
1 42024U 17008CE  21294.44934495  .00007674  00000-0  24497-3 0  9991
2 42024  97.3136   3.4885 0006269   1.9655 358.1611 15.32745132259600
1 42024U 17008CE  21295.16747367  .00007995  00000-0  25502-3 0  9995
2 42024  97.3133   4.1983 0006204 359.5202   0.6033 15.32756500259713
1 42024U 17008CE  21295.42861024  .00007397  00000-0  23615-3 0  9990
2 42024  97.3133   4.4565 0006170 358.6195   1.5029 15.32759245259753
1 42024U 17008CE  21295.68974648  .00007067  00000-0  22571-3 0  9999
2 42024  97.3132   4.7146 0006143 357.6599   2.4613 15.32762265259796
1 42024U 17008CE  21296.14673254  .00007800  00000-0  24879-3 0  9998
2 42024  97.3130   5.1664 0006100 355.8367   4.2823 15.32769981259863
1 42024U 17008CE  21296.47315034  .00007234  00000-0  23090-3 0  9998
2 42024  97.3129   5.4890 0006068 354.5873   5.5303 15.32773502259913
1 42024U 17008CE  21296.73428388  .00007201  00000-0  22982-3 0  9997
2 42024  97.3128   5.7471 0006044 353.5787   6.5377 15.32777225259959
1 42024U 17008CE  21297.45239718  .00007418  00000-0  23659-3 0  9996
2 42024  97.3124   6.4567 0005971 350.6302   9.4828 15.32788057260060
1 42024U 17008CE  21297.71352818  .00007481  00000-0  23855-3 0  9990
2 42024  97.3123   6.7147 0005953 349.6330  10.4788 15.32792092260101
1 42024U 17008CE  21298.17050516  .00007837  00000-0  24972-3 0  9997
2 42024  97.3122   7.1664 0005918 347.8442  12.2656 15.32800034260171
1 42024U 17008CE  21298.75804394  .00009400  00000-0  29887-3 0  9990
2 42024  97.3121   7.7470 0005859 345.7515  14.3561 15.32811948260267
1 42024U 17008CE  21299.47614026  .00010702  00000-0  33973-3 0  9999
2 42024  97.3120   8.4567 0005793 342.9398  17.1649 15.32827438260377
1 42024U 17008CE  21300.19422908  .00010645  00000-0  33778-3 0  9996
2 42024  97.3119   9.1662 0005745 339.8606  20.2409 15.32842880260482
1 42024U 17008CE  21301.17342892  .00010980  00000-0  34807-3 0  9994
2 42024  97.3120  10.1340 0005661 336.0859  24.0120 15.32865731260634
1 42024U 17008CE  21301.69566341  .00012131  00000-0  38410-3 0  9992
2 42024  97.3120  10.6501 0005620 333.9531  26.1428 15.32877901260711
1 42024U 17008CE  21302.15261473  .00012119  00000-0  38359-3 0  9990
2 42024  97.3121  11.1017 0005578 332.1160  27.9783 15.32889001260785
1 42024U 17008CE  21302.41372855  .00012380  00000-0  39173-3 0  9991
2 42024  97.3121  11.3598 0005560 331.0394  29.0539 15.32894729260829
1 42024U 17008CE  21302.67484148  .00014014  00000-0  44291-3 0  9991
2 42024  97.3121  11.6179 0005553 329.9138  30.1785 15.32902567260861
1 42024U 17008CE  21303.45817189  .00015406  00000-0  48623-3 0  9992
2 42024  97.3122  12.3922 0005482 326.7010  33.3887 15.32924328260981
1 42024U 17008CE  21304.43731698  .00019333  00000-0  60859-3 0  9999
2 42024  97.3124  13.3600 0005437 322.4746  37.6116 15.32959500261136
1 42024U 17008CE  21304.95951896  .00020150  00000-0  63378-3 0  9998
2 42024  97.3126  13.8764 0005431 320.1231  39.9611 15.32978445261215
1 42024U 17008CE  21305.41644016  .00017935  00000-0  56427-3 0  9997
2 42024  97.3126  14.3281 0005404 318.2961  41.7869 15.32992521261287
1 42024U 17008CE  21306.13444992  .00018274  00000-0  57441-3 0  9992
2 42024  97.3127  15.0381 0005363 315.1326  44.9482 15.33018519261397
1 42024U 17008CE  21307.43989579  .00017179  00000-0  53956-3 0  9991
2 42024  97.3124  16.3288 0005274 309.2857  50.7917 15.33057050261591
1 42024U 17008CE  21308.41895667  .00041071  00000-0  12803-2 0  9997
2 42024  97.3121  17.2969 0005235 304.8479  55.2270 15.33115941261745
1 42024U 17008CE  21309.20218641  .00021590  00000-0  67558-3 0  9998
2 42024  97.3119  18.0713 0005198 301.3879  58.6854 15.33129626261865
1 42024U 17008CE  21309.46325785  .00019077  00000-0  59723-3 0  9996
2 42024  97.3118  18.3294 0005162 300.2643  59.8088 15.33140170261903
1 42024U 17008CE  21309.92012883  .00015187  00000-0  47592-3 0  9998
2 42024  97.3116  18.7812 0005224 297.7721  62.2991 15.33157448261971
1 42024U 17008CE  21310.18119619  .00014057  00000-0  44064-3 0  9999
2 42024  97.3114  19.0393 0005219 296.6992  63.3716 15.33165906262010
1 42024U 17008CE  21310.44226276  .00012950  00000-0  40609-3 0  9997
2 42024  97.3113  19.2974 0005212 295.4591  64.6112 15.33171670262054
1 42024U 17008CE  21310.70332822  .00012558  00000-0  39380-3 0  9999
2 42024  97.3111  19.5555 0005213 294.2506  65.8191 15.33178680262096
1 42024U 17008CE  21311.42125178  .00011195  00000-0  35121-3 0  9998
2 42024  97.3107  20.2652 0005178 290.9810  69.0879 15.33196067262200
1 42024U 17008CE  21312.13916771  .00009788  00000-0  30726-3 0  9995
2 42024  97.3105  20.9749 0005169 287.6247  72.4431 15.33212141262315
1 42024U 17008CE  21312.46549106  .00008688  00000-0  27298-3 0  9993
2 42024  97.3104  21.2975 0005162 286.0930  73.9744 15.33217197262368
1 42024U 17008CE  21313.44445365  .00009643  00000-0  30252-3 0  9990
2 42024  97.3101  22.2652 0005139 281.5318  78.5347 15.33236323262511
1 42024U 17008CE  21313.96656307  .00008502  00000-0  26699-3 0  9990
2 42024  97.3101  22.7813 0005136 279.0471  81.0190 15.33243890262594
1 42024U 17008CE  21314.42340550  .00010390  00000-0  32556-3 0  9999
2 42024  97.3102  23.2330 0005130 277.0459  83.0200 15.33255384262666
1 42024U 17008CE  21315.14129650  .00008782  00000-0  27550-3 0  9995
2 42024  97.3102  23.9427 0005151 273.7332  86.3321 15.33265770262778
1 42024U 17008CE  21315.46760835  .00008733  00000-0  27392-3 0  9996
2 42024  97.3102  24.2653 0005150 272.1365  87.9288 15.33271724262822
1 42024U 17008CE  21315.72865711  .00008216  00000-0  25784-3 0  9993
2 42024  97.3103  24.5234 0005157 270.9035  89.1617 15.33275846262861
1 42024U 17008CE  21316.18549040  .00007745  00000-0  24315-3 0  9993
2 42024  97.3104  24.9751 0005171 268.7625  91.3025 15.33283395262930
